STARLINK-37450          
1 68818U 26089S   26143.52018791  .00183501  00000+0  12020-2 0  9999
2 68818  97.2852 350.1034 0001037 103.1543 256.9838 15.75245326  4814
STARLINK-37409          
1 68819U 26089T   26143.51912941  .00236211  00000+0  15360-2 0  9996
2 68819  97.2844 350.1049 0001179 107.8598 252.2796 15.75267100  4816
STARLINK-37470          
1 68820U 26089U   26143.51595439  .00192404  00000+0  12607-2 0  9993
2 68820  97.2852 350.1083 0001280  95.9902 264.1509 15.75212741  4819
STARLINK-37421          
1 68821U 26089V   26143.51842975  .00186353  00000+0  12218-2 0  9998
2 68821  97.2845 350.1061 0001239  88.9856 271.1551 15.75217004  4814
STARLINK-37462          
1 68822U 26089W   26143.51630582  .00124322  00000+0  82134-3 0  9991
2 68822  97.2855 350.1084 0001018  95.9346 264.2035 15.75217217  4814
STARLINK-37410          
1 68823U 26089X   26143.51558602  .00094307  00000+0  62616-3 0  9996
2 68823  97.2890 350.1076 0000994 118.9550 241.1815 15.75191211  4815
STARLINK-37443          
1 68824U 26089Y   26143.51418759  .00151536  00000+0  99720-3 0  9999
2 68824  97.2849 350.1109 0001293  98.1619 261.9793 15.75229672  4813
STARLINK-37015          
1 68825U 26089Z   26143.51348178  .00163994  00000+0  10773-2 0  9998
2 68825  97.2852 350.1116 0001206 103.1517 256.9883 15.75235271  4810
COSMOS 2615             
1 68826U 26090A   26143.47619369  .00025239  00000+0  12860-3 0  9998
2 68826  96.6461  62.0354 0018204 126.7450 233.5495 15.81139252  4769
COSMOS 2616             
1 68827U 26090B   26143.47343696  .00025371  00000+0  12771-3 0  9994
2 68827  96.6462  62.0389 0017733 128.2824 232.0044 15.81414788  4761
COSMOS 2617             
1 68828U 26090C   26143.47183568  .00025447  00000+0  12767-3 0  9994
2 68828  96.6462  62.0409 0017918 128.4232 231.8650 15.81481710  4764
COSMOS 2618             
1 68829U 26090D   26143.46886921  .00029999  00000+0  14697-3 0  9997
2 68829  96.6465  62.0445 0016777 129.9997 230.2749 15.82000628  4762
