CCSDS_OMM_VERS = 2.0
CREATION_DATE  = 
ORIGINATOR     = 

OBJECT_NAME    = STARLINK-37450
OBJECT_ID      = 2026-089S
CENTER_NAME    = EARTH
REF_FRAME      = TEME
TIME_SYSTEM    = UTC
MEAN_ELEMENT_THEORY = SGP/SGP4

EPOCH          = 2026-05-23T12:29:04.235424
MEAN_MOTION    = 15.75245326
ECCENTRICITY   = .0001037
INCLINATION    = 97.2852
RA_OF_ASC_NODE = 350.1034
ARG_OF_PERICENTER = 103.1543
MEAN_ANOMALY   = 256.9838

EPHEMERIS_TYPE = 0
CLASSIFICATION_TYPE = U
NORAD_CAT_ID   = 68818
ELEMENT_SET_NO = 999
REV_AT_EPOCH   = 481
BSTAR          = .1202E-2
MEAN_MOTION_DOT = .183501E-2
MEAN_MOTION_DDOT = 0

CCSDS_OMM_VERS = 2.0
CREATION_DATE  = 
ORIGINATOR     = 

OBJECT_NAME    = STARLINK-37409
OBJECT_ID      = 2026-089T
CENTER_NAME    = EARTH
REF_FRAME      = TEME
TIME_SYSTEM    = UTC
MEAN_ELEMENT_THEORY = SGP/SGP4

EPOCH          = 2026-05-23T12:27:32.781024
MEAN_MOTION    = 15.75267100
ECCENTRICITY   = .0001179
INCLINATION    = 97.2844
RA_OF_ASC_NODE = 350.1049
ARG_OF_PERICENTER = 107.8598
MEAN_ANOMALY   = 252.2796

EPHEMERIS_TYPE = 0
CLASSIFICATION_TYPE = U
NORAD_CAT_ID   = 68819
ELEMENT_SET_NO = 999
REV_AT_EPOCH   = 481
BSTAR          = .1536E-2
MEAN_MOTION_DOT = .236211E-2
MEAN_MOTION_DDOT = 0

CCSDS_OMM_VERS = 2.0
CREATION_DATE  = 
ORIGINATOR     = 

OBJECT_NAME    = STARLINK-37470
OBJECT_ID      = 2026-089U
CENTER_NAME    = EARTH
REF_FRAME      = TEME
TIME_SYSTEM    = UTC
MEAN_ELEMENT_THEORY = SGP/SGP4

EPOCH          = 2026-05-23T12:22:58.459296
MEAN_MOTION    = 15.75212741
ECCENTRICITY   = .000128
INCLINATION    = 97.2852
RA_OF_ASC_NODE = 350.1083
ARG_OF_PERICENTER = 95.9902
MEAN_ANOMALY   = 264.1509

EPHEMERIS_TYPE = 0
CLASSIFICATION_TYPE = U
NORAD_CAT_ID   = 68820
ELEMENT_SET_NO = 999
REV_AT_EPOCH   = 481
BSTAR          = .12607E-2
MEAN_MOTION_DOT = .192404E-2
MEAN_MOTION_DDOT = 0

CCSDS_OMM_VERS = 2.0
CREATION_DATE  = 
ORIGINATOR     = 

OBJECT_NAME    = STARLINK-37421
OBJECT_ID      = 2026-089V
CENTER_NAME    = EARTH
REF_FRAME      = TEME
TIME_SYSTEM    = UTC
MEAN_ELEMENT_THEORY = SGP/SGP4

EPOCH          = 2026-05-23T12:26:32.330400
MEAN_MOTION    = 15.75217004
ECCENTRICITY   = .0001239
INCLINATION    = 97.2845
RA_OF_ASC_NODE = 350.1061
ARG_OF_PERICENTER = 88.9856
MEAN_ANOMALY   = 271.1551

EPHEMERIS_TYPE = 0
CLASSIFICATION_TYPE = U
NORAD_CAT_ID   = 68821
ELEMENT_SET_NO = 999
REV_AT_EPOCH   = 481
BSTAR          = .12218E-2
MEAN_MOTION_DOT = .186353E-2
MEAN_MOTION_DDOT = 0

CCSDS_OMM_VERS = 2.0
CREATION_DATE  = 
ORIGINATOR     = 

OBJECT_NAME    = STARLINK-37462
OBJECT_ID      = 2026-089W
CENTER_NAME    = EARTH
REF_FRAME      = TEME
TIME_SYSTEM    = UTC
MEAN_ELEMENT_THEORY = SGP/SGP4

EPOCH          = 2026-05-23T12:23:28.822848
MEAN_MOTION    = 15.75217217
ECCENTRICITY   = .0001018
INCLINATION    = 97.2855
RA_OF_ASC_NODE = 350.1084
ARG_OF_PERICENTER = 95.9346
MEAN_ANOMALY   = 264.2035

EPHEMERIS_TYPE = 0
CLASSIFICATION_TYPE = U
NORAD_CAT_ID   = 68822
ELEMENT_SET_NO = 999
REV_AT_EPOCH   = 481
BSTAR          = .82134E-3
MEAN_MOTION_DOT = .124322E-2
MEAN_MOTION_DDOT = 0

CCSDS_OMM_VERS = 2.0
CREATION_DATE  = 
ORIGINATOR     = 

OBJECT_NAME    = STARLINK-37410
OBJECT_ID      = 2026-089X
CENTER_NAME    = EARTH
REF_FRAME      = TEME
TIME_SYSTEM    = UTC
MEAN_ELEMENT_THEORY = SGP/SGP4

EPOCH          = 2026-05-23T12:22:26.632128
MEAN_MOTION    = 15.75191211
ECCENTRICITY   = .0000994
INCLINATION    = 97.2890
RA_OF_ASC_NODE = 350.1076
ARG_OF_PERICENTER = 118.9550
MEAN_ANOMALY   = 241.1815

EPHEMERIS_TYPE = 0
CLASSIFICATION_TYPE = U
NORAD_CAT_ID   = 68823
ELEMENT_SET_NO = 999
REV_AT_EPOCH   = 481
BSTAR          = .62616E-3
MEAN_MOTION_DOT = .94307E-3
MEAN_MOTION_DDOT = 0

CCSDS_OMM_VERS = 2.0
CREATION_DATE  = 
ORIGINATOR     = 

OBJECT_NAME    = STARLINK-37443
OBJECT_ID      = 2026-089Y
CENTER_NAME    = EARTH
REF_FRAME      = TEME
TIME_SYSTEM    = UTC
MEAN_ELEMENT_THEORY = SGP/SGP4

EPOCH          = 2026-05-23T12:20:25.807776
MEAN_MOTION    = 15.75229672
ECCENTRICITY   = .0001293
INCLINATION    = 97.2849
RA_OF_ASC_NODE = 350.1109
ARG_OF_PERICENTER = 98.1619
MEAN_ANOMALY   = 261.9793

EPHEMERIS_TYPE = 0
CLASSIFICATION_TYPE = U
NORAD_CAT_ID   = 68824
ELEMENT_SET_NO = 999
REV_AT_EPOCH   = 481
BSTAR          = .9972E-3
MEAN_MOTION_DOT = .151536E-2
MEAN_MOTION_DDOT = 0

CCSDS_OMM_VERS = 2.0
CREATION_DATE  = 
ORIGINATOR     = 

OBJECT_NAME    = STARLINK-37015
OBJECT_ID      = 2026-089Z
CENTER_NAME    = EARTH
REF_FRAME      = TEME
TIME_SYSTEM    = UTC
MEAN_ELEMENT_THEORY = SGP/SGP4

EPOCH          = 2026-05-23T12:19:24.825792
MEAN_MOTION    = 15.75235271
ECCENTRICITY   = .0001206
INCLINATION    = 97.2852
RA_OF_ASC_NODE = 350.1116
ARG_OF_PERICENTER = 103.1517
MEAN_ANOMALY   = 256.9883

EPHEMERIS_TYPE = 0
CLASSIFICATION_TYPE = U
NORAD_CAT_ID   = 68825
ELEMENT_SET_NO = 999
REV_AT_EPOCH   = 481
BSTAR          = .10773E-2
MEAN_MOTION_DOT = .163994E-2
MEAN_MOTION_DDOT = 0

CCSDS_OMM_VERS = 2.0
CREATION_DATE  = 
ORIGINATOR     = 

OBJECT_NAME    = COSMOS 2615
OBJECT_ID      = 2026-090A
CENTER_NAME    = EARTH
REF_FRAME      = TEME
TIME_SYSTEM    = UTC
MEAN_ELEMENT_THEORY = SGP/SGP4

EPOCH          = 2026-05-23T11:25:43.134816
MEAN_MOTION    = 15.81139252
ECCENTRICITY   = .0018204
INCLINATION    = 96.6461
RA_OF_ASC_NODE = 62.0354
ARG_OF_PERICENTER = 126.7450
MEAN_ANOMALY   = 233.5495

EPHEMERIS_TYPE = 0
CLASSIFICATION_TYPE = U
NORAD_CAT_ID   = 68826
ELEMENT_SET_NO = 999
REV_AT_EPOCH   = 476
BSTAR          = .1286E-3
MEAN_MOTION_DOT = .25239E-3
MEAN_MOTION_DDOT = 0

CCSDS_OMM_VERS = 2.0
CREATION_DATE  = 
ORIGINATOR     = 

OBJECT_NAME    = COSMOS 2616
OBJECT_ID      = 2026-090B
CENTER_NAME    = EARTH
REF_FRAME      = TEME
TIME_SYSTEM    = UTC
MEAN_ELEMENT_THEORY = SGP/SGP4

EPOCH          = 2026-05-23T11:21:44.953344
MEAN_MOTION    = 15.81414788
ECCENTRICITY   = .0017733
INCLINATION    = 96.6462
RA_OF_ASC_NODE = 62.0389
ARG_OF_PERICENTER = 128.2824
MEAN_ANOMALY   = 232.0044

EPHEMERIS_TYPE = 0
CLASSIFICATION_TYPE = U
NORAD_CAT_ID   = 68827
ELEMENT_SET_NO = 999
REV_AT_EPOCH   = 476
BSTAR          = .12771E-3
MEAN_MOTION_DOT = .25371E-3
MEAN_MOTION_DDOT = 0

CCSDS_OMM_VERS = 2.0
CREATION_DATE  = 
ORIGINATOR     = 

OBJECT_NAME    = COSMOS 2617
OBJECT_ID      = 2026-090C
CENTER_NAME    = EARTH
REF_FRAME      = TEME
TIME_SYSTEM    = UTC
MEAN_ELEMENT_THEORY = SGP/SGP4

EPOCH          = 2026-05-23T11:19:26.602752
MEAN_MOTION    = 15.81481710
ECCENTRICITY   = .0017918
INCLINATION    = 96.6462
RA_OF_ASC_NODE = 62.0409
ARG_OF_PERICENTER = 128.4232
MEAN_ANOMALY   = 231.8650

EPHEMERIS_TYPE = 0
CLASSIFICATION_TYPE = U
NORAD_CAT_ID   = 68828
ELEMENT_SET_NO = 999
REV_AT_EPOCH   = 476
BSTAR          = .12767E-3
MEAN_MOTION_DOT = .25447E-3
MEAN_MOTION_DDOT = 0

CCSDS_OMM_VERS = 2.0
CREATION_DATE  = 
ORIGINATOR     = 

OBJECT_NAME    = COSMOS 2618
OBJECT_ID      = 2026-090D
CENTER_NAME    = EARTH
REF_FRAME      = TEME
TIME_SYSTEM    = UTC
MEAN_ELEMENT_THEORY = SGP/SGP4

EPOCH          = 2026-05-23T11:15:10.299744
MEAN_MOTION    = 15.82000628
ECCENTRICITY   = .0016777
INCLINATION    = 96.6465
RA_OF_ASC_NODE = 62.0445
ARG_OF_PERICENTER = 129.9997
MEAN_ANOMALY   = 230.2749

EPHEMERIS_TYPE = 0
CLASSIFICATION_TYPE = U
NORAD_CAT_ID   = 68829
ELEMENT_SET_NO = 999
REV_AT_EPOCH   = 476
BSTAR          = .14697E-3
MEAN_MOTION_DOT = .29999E-3
MEAN_MOTION_DDOT = 0

